NORAD_CAT_ID,OBJECT_NAME,OBJECT_TYPE,EPOCH,MEAN_MOTION,ECCENTRICITY,INCLINATION,RA_OF_ASC_NODE,ARG_OF_PERICENTER,MEAN_ANOMALY,BSTAR,MEAN_MOTION_DOT,MEAN_MOTION_DDOT,TLE_LINE0,TLE_LINE1,TLE_LINE2,SEMIMAJOR_AXIS,PERIOD,APOGEE,PERIGEE,DECAYED
49166.0,STARLINK-3089,PAYLOAD,2022-01-04 20:12:38,15.69751157,0.0003368,69.9985,169.9693,280.4208,79.6607,0.0001612,0.00019076,0.0,0 STARLINK-3089,1 49166U 21082AN  22004.84210796  .00019076  00000-0  16120-3 0  9990,2 49166  69.9985 169.9693 0003368 280.4208  79.6607 15.69751157 18990,6737.746,91.734,361.88,357.342,0.0
49166.0,STARLINK-3089,PAYLOAD,2022-01-05 06:00:00,15.69681162,0.0003607,69.9985,168.8232,273.4833,231.0152,0.0006107,0.00073126,0.0,0 STARLINK-3089,1 49166U 21082AN  22005.25001157  .00073126  00000-0  61070-3 0  9995,2 49166  69.9985 168.8232 0003607 273.4833 231.0152 15.69681162 19054,6737.946,91.738,362.242,357.381,0.0
49166.0,STARLINK-3089,PAYLOAD,2022-01-05 14:00:01,15.69751043,0.0003621,69.9987,167.8865,274.241,313.3244,-0.00026982,-0.00032303,0.0,0 STARLINK-3089,1 49166U 21082AN  22005.58334491 -.00032303  00000-0 -26982-3 0  9998,2 49166  69.9987 167.8865 0003621 274.2410 313.3244 15.69751043  3687,6737.746,91.734,362.051,357.172,0.0
49166.0,STARLINK-3089,PAYLOAD,2022-01-05 22:00:00,15.69726638,0.000369,69.9983,166.9494,280.0388,30.6476,0.00037758,0.00045065,0.0,0 STARLINK-3089,1 49166U 21082AN  22005.91667824  .00045065  00000-0  37758-3 0  9994,2 49166  69.9983 166.9494 0003690 280.0388  30.6476 15.69726638 19164,6737.816,91.736,362.167,357.195,0.0
49166.0,STARLINK-3089,PAYLOAD,2022-01-06 14:00:01,15.69784913,0.0003687,69.999,165.0753,275.0062,201.9166,-0.00022889,-0.00027489,0.0,0 STARLINK-3089,1 49166U 21082AN  22006.58334491 -.00027489  00000-0 -22889-3 0  9990,2 49166  69.9990 165.0753 0003687 275.0062 201.9166 15.69784913 19269,6737.649,91.732,361.999,357.03,0.0
49166.0,STARLINK-3089,PAYLOAD,2022-01-06 22:00:00,15.69776212,0.0003727,69.9988,164.1382,279.3572,280.7226,0.00010005,0.00011762,0.0,0 STARLINK-3089,1 49166U 21082AN  22006.91667824  .00011762  00000-0  10005-3 0  9998,2 49166  69.9988 164.1382 0003727 279.3572 280.7226 15.69776212  3686,6737.674,91.733,362.05,357.028,0.0
49166.0,STARLINK-3089,PAYLOAD,2022-01-07 14:00:01,15.69763109,0.0003932,69.9989,162.2647,275.4127,90.9489,-0.00034097,-0.00040748,0.0,0 STARLINK-3089,1 49166U 21082AN  22007.58334491 -.00040748  00000-0 -34097-3 0  9998,2 49166  69.9989 162.2647 0003932 275.4127  90.9489 15.69763109 19423,6737.712,91.734,362.226,356.92800000000005,0.0
49166.0,STARLINK-3089,PAYLOAD,2022-01-07 22:00:00,15.69736044,0.0003951,69.9983,161.3275,280.1917,169.287,0.00023304,0.00027687,0.0,0 STARLINK-3089,1 49166U 21082AN  22007.91667824  .00027687  00000-0  23304-3 0  9998,2 49166  69.9983 161.3275 0003951 280.1917 169.2870 15.69736044  3677,6737.7890000000025,91.735,362.316,356.992,0.0
49166.0,STARLINK-3089,PAYLOAD,2022-01-08 06:00:00,15.69714997,0.0003949,69.9983,160.3904,274.3077,258.3089,0.0006724999999999,0.00080739,0.0,0 STARLINK-3089,1 49166U 21082AN  22008.25001157  .00080739  00000-0  67250-3 0  9992,2 49166  69.9983 160.3904 0003949 274.3077 258.3089 15.69714997 19520,6737.849,91.736,362.375,357.05400000000014,0.0
49166.0,STARLINK-3089,PAYLOAD,2022-01-08 14:00:01,15.69787339,0.0003965,69.9987,159.4533,275.97700000000003,339.7659,-0.0001489,-0.0001798,0.0,0 STARLINK-3089,1 49166U 21082AN  22008.58334491 -.00017980  00000-0 -14890-3 0  9990,2 49166  69.9987 159.4533 0003965 275.9770 339.7659 15.69787339  3661,6737.642,91.732,362.179,356.836,0.0
49166.0,STARLINK-3089,PAYLOAD,2022-01-08 22:00:00,15.6979964,0.000392,69.9985,158.5162,280.9198,57.9757,-0.0002537,-0.00030455,0.0,0 STARLINK-3089,1 49166U 21082AN  22008.91667824 -.00030455  00000-0 -25370-3 0  9993,2 49166  69.9985 158.5162 0003920 280.9198  57.9757 15.69799640 19638,6737.607,91.731,362.11300000000006,356.831,0.0
49166.0,STARLINK-3089,PAYLOAD,2022-01-09 14:00:01,15.69775277,0.0003679,69.9986,156.6425,278.0102,227.2001,-0.0001474,-0.00017791,0.0,0 STARLINK-3089,1 49166U 21082AN  22009.58334491 -.00017791  00000-0 -14740-3 0  9995,2 49166  69.9986 156.6425 0003679 278.0102 227.2001 15.69775277  3664,6737.677,91.733,362.021,357.06300000000016,0.0
49166.0,STARLINK-3089,PAYLOAD,2022-01-09 22:00:00,15.69801444,0.0003625,69.9978,155.7056,281.8218,306.5363,-0.00040788,-0.00048729,0.0,0 STARLINK-3089,1 49166U 21082AN  22009.91667824 -.00048729  00000-0 -40788-3 0  9997,2 49166  69.9978 155.7056 0003625 281.8218 306.5363 15.69801444 19795,6737.602,91.731,361.909,357.025,0.0
49166.0,STARLINK-3089,PAYLOAD,2022-01-10 06:00:00,15.69722504,0.0003351,69.9979,154.7685,276.2446,35.2904,-0.00018561,-0.00022286,0.0,0 STARLINK-3089,1 49166U 21082AN  22010.25001157 -.00022286  00000-0 -18561-3 0  9991,2 49166  69.9979 154.7685 0003351 276.2446  35.2904 15.69722504 19842,6737.828,91.736,361.951,357.435,0.0
49166.0,STARLINK-3089,PAYLOAD,2022-01-10 14:00:01,15.69696626,0.0003231,69.9981,153.8313,279.6834,114.9354,-0.00015782,-0.00018968,0.0,0 STARLINK-3089,1 49166U 21082AN  22010.58334491 -.00018968  00000-0 -15782-3 0  9991,2 49166  69.9981 153.8313 0003231 279.6834 114.9354 15.69696626  3682,6737.901999999999,91.737,361.944,357.59,0.0
49166.0,STARLINK-3089,PAYLOAD,2022-01-10 22:00:00,15.69709721,0.0003199,69.9979,152.8943,285.2518,192.4234,4.6627e-05,5.348e-05,0.0,0 STARLINK-3089,1 49166U 21082AN  22010.91667824  .00005348  00000-0  46627-4 0  9996,2 49166  69.9979 152.8943 0003199 285.2518 192.4234 15.69709721  3681,6737.865,91.737,361.885,357.574,0.0
49166.0,STARLINK-3089,PAYLOAD,2022-01-11 06:00:00,15.69673787,0.0003148,69.998,151.9575,278.5756,282.1872,0.00084052,0.00101023,0.0,0 STARLINK-3089,1 49166U 21082AN  22011.25001157  .00101023  00000-0  84052-3 0  9995,2 49166  69.9980 151.9575 0003148 278.5756 282.1872 15.69673787 20009,6737.967,91.739,361.953,357.711,0.0
49166.0,STARLINK-3089,PAYLOAD,2022-01-11 14:00:01,15.69750063,0.0003226,69.9982,151.0207,281.9929,1.855,-0.00010104,-0.00012256,0.0,0 STARLINK-3089,1 49166U 21082AN  22011.58334491 -.00012256  00000-0 -10104-3 0  9999,2 49166  69.9982 151.0207 0003226 281.9929   1.8550 15.69750063  3677,6737.749,91.734,361.788,357.441,0.0
49166.0,STARLINK-3089,PAYLOAD,2022-01-11 22:00:00,15.69759747,0.0003315,69.9976,150.0836,286.1311,80.8363,4.643e-05,5.336e-05,0.0,0 STARLINK-3089,1 49166U 21082AN  22011.91667824  .00005336  00000-0  46430-4 0  9996,2 49166  69.9976 150.0836 0003315 286.1311  80.8363 15.69759747 20102,6737.721,91.734,361.82,357.353,0.0
49166.0,STARLINK-3089,PAYLOAD,2022-01-12 14:00:01,15.69731115,0.0003084,69.9978,148.2094,283.9811,249.2838,5.5629e-06,4.52e-06,0.0,0 STARLINK-3089,1 49166U 21082AN  22012.58334491  .00000452  00000-0  55629-5 0  9996,2 49166  69.9978 148.2094 0003084 283.9811 249.2838 15.69731115  3694,6737.803000000001,91.735,361.746,357.59,0.0
49166.0,STARLINK-3089,PAYLOAD,2022-01-12 16:00:00,15.69714515,0.0003061,69.9978,147.9752,286.5952,357.4498,0.0003306,0.0003938,0.0,0 STARLINK-3089,1 49166U 21082AN  22012.66667824  .00039380  00000-0  33060-3 0  9999,2 49166  69.9978 147.9752 0003061 286.5952 357.4498 15.69714515 20228,6737.851,91.736,361.778,357.653,0.0
49166.0,STARLINK-3089,PAYLOAD,2022-01-13 14:00:01,15.69804555,0.0003273,69.9983,145.3987,284.8219,137.8145,-0.00094615,-0.00111921,0.0,0 STARLINK-3089,1 49166U 21082AN  22013.58334491 -.00111921  00000-0 -94615-3 0  9999,2 49166  69.9983 145.3987 0003273 284.8219 137.8145 15.69804555 20366,6737.593000000003,91.731,361.663,357.25300000000016,0.0
49166.0,STARLINK-3089,PAYLOAD,2022-01-13 22:00:00,15.69751353,0.0003422,69.9979,144.4616,287.2383,218.543,-0.00013217,-0.00015962,0.0,0 STARLINK-3089,1 49166U 21082AN  22013.91667824 -.00015962  00000-0 -13217-3 0  9992,2 49166  69.9979 144.4616 0003422 287.2383 218.5430 15.69751353 20412,6737.745,91.734,361.916,357.305,0.0
49166.0,STARLINK-3089,PAYLOAD,2022-01-14 14:00:01,15.6979198,0.0003545,69.9982,142.5876,284.6883,27.3452,-0.00048277,-0.00057554,0.0,0 STARLINK-3089,1 49166U 21082AN  22014.58334491 -.00057554  00000-0 -48277-3 0  9994,2 49166  69.9982 142.5876 0003545 284.6883  27.3452 15.69791980 20527,6737.629,91.732,361.883,357.106,0.0
49166.0,STARLINK-3089,PAYLOAD,2022-01-14 22:00:00,15.6975929,0.000366,69.9981,141.6506,287.4847,107.7062,-0.00029354,-0.00035124,0.0,0 STARLINK-3089,1 49166U 21082AN  22014.91667824 -.00035124  00000-0 -29354-3 0  9994,2 49166  69.9981 141.6506 0003660 287.4847 107.7062 15.69759290  3692,6737.723000000001,91.734,362.054,357.122,0.0
49166.0,STARLINK-3089,PAYLOAD,2022-01-15 14:00:01,15.69827536,0.0003373,69.999,139.7768,288.907,272.5904,-0.00052138,-0.00062194,0.0,0 STARLINK-3089,1 49166U 21082AN  22015.58335648 -.00062194  00000-0 -52138-3 0  9997,2 49166  69.9990 139.7768 0003373 288.9070 272.5904 15.69827536 20688,6737.526999999999,91.73,361.665,357.12,0.0
49166.0,STARLINK-3089,PAYLOAD,2022-01-15 22:00:01,15.69782634,0.0003603,69.9985,138.8398,288.9306,355.7382,-0.00010318,-0.00012529,0.0,0 STARLINK-3089,1 49166U 21082AN  22015.91668981 -.00012529  00000-0 -10318-3 0  9994,2 49166  69.9985 138.8398 0003603 288.9306 355.7382 15.69782634  3683,6737.656,91.732,361.948,357.093,0.0
49166.0,STARLINK-3089,PAYLOAD,2022-01-16 06:00:00,15.69794704,0.0003566,69.9988,137.9029,283.9772,83.8008,-0.00053474,-0.00063688,0.0,0 STARLINK-3089,1 49166U 21082AN  22016.25001157 -.00063688  00000-0 -53474-3 0  9990,2 49166  69.9988 137.9029 0003566 283.9772  83.8008 15.69794704 20782,6737.621,91.732,361.889,357.084,0.0
49166.0,STARLINK-3089,PAYLOAD,2022-01-16 14:00:01,15.69699266,0.0003595,69.9989,136.9659,288.772,162.1706,-0.00015858,-0.00019062,0.0,0 STARLINK-3089,1 49166U 21082AN  22016.58334491 -.00019062  00000-0 -15858-3 0  9997,2 49166  69.9989 136.9659 0003595 288.7720 162.1706 15.69699266  3705,6737.894,91.737,362.182,357.337,0.0
